"{\n    \"CCSDS_OMM_VERS\": \"2.0\",\n    \"COMMENT\": \"GENERATED VIA SPACE-TRACK.ORG API\",\n    \"CREATION_DATE\": \"2025-08-31T11:35:43\",\n    \"ORIGINATOR\": \"18 SPCS\",\n    \"OBJECT_NAME\": \"NAVSTAR 43 (USA 132)\",\n    \"OBJECT_ID\": \"1997-035A\",\n    \"CENTER_NAME\": \"EARTH\",\n    \"REF_FRAME\": \"TEME\",\n    \"TIME_SYSTEM\": \"UTC\",\n    \"MEAN_ELEMENT_THEORY\": \"SGP4\",\n    \"EPOCH\": \"2025-08-31T00:40:09.645888\",\n    \"MEAN_MOTION\": \"2.0056290538\",\n    \"ECCENTRICITY\": \"0.0094706141\",\n    \"INCLINATION\": \"55.840217\",\n    \"RA_OF_ASC_NODE\": \"109.92604\",\n    \"ARG_OF_PERICENTER\": \"55.925029\",\n    \"MEAN_ANOMALY\": \"305.05154\",\n    \"EPHEMERIS_TYPE\": \"0\",\n    \"CLASSIFICATION_TYPE\": \"U\",\n    \"NORAD_CAT_ID\": \"24876\",\n    \"ELEMENT_SET_NO\": \"999\",\n    \"REV_AT_EPOCH\": \"20613\",\n    \"BSTAR\": \"0\",\n    \"MEAN_MOTION_DOT\": \"-0.00000015294\",\n    \"MEAN_MOTION_DDOT\": \"0\",\n    \"TLE_LINE0\": \"0 NAVSTAR 43 (USA 132)\",\n    \"TLE_LINE1\": \"1 24876U 97035A   25243.02788942 -.00000015  00000-0  00000-0 0  9994\",\n    \"TLE_LINE2\": \"2 24876  55.8402 109.9260 0094706  55.9250 305.0515  2.00562905206132\",\n    \"SEMIMAJOR_AXIS\": \"26560.409\",\n    \"PERIOD\": \"717.979\",\n    \"APOAPSIS\": \"20433.818\",\n    \"PERIAPSIS\": \"19930.731\",\n    \"OBJECT_TYPE\": \"PAYLOAD\",\n    \"DECAYED\": \"0\"\n}"